{
  "type": "FeatureCollection",
  "features": [
    {
      "type": "Feature",
      "properties": {
        "norad_id": 67102,
        "name": "STARLINK-36255",
        "group": "last-30-days",
        "lat": -42.00125078215075,
        "lon": 159.98961740676316,
        "alt_km": 290.27665044292553,
        "timestamp": "2025-12-21T05:44:50.294909+00:00",
        "meta_object_name": "STARLINK-36255",
        "meta_object_id": "2025-299A",
        "meta_epoch": "2025-12-20T22:00:01.999584",
        "meta_mean_motion": 15.95864633,
        "meta_eccentricity": 0.00017049,
        "meta_inclination": 42.9993,
        "meta_ra_of_asc_node": 266.9142,
        "meta_arg_of_pericenter": 268.4241,
        "meta_mean_anomaly": 294.3219,
        "meta_ephemeris_type": 0,
        "meta_classification_type": "U",
        "meta_norad_cat_id": 67102,
        "meta_element_set_no": 999,
        "meta_rev_at_epoch": 212,
        "meta_bstar": -0.0032168674,
        "meta_mean_motion_dot": -0.01356711,
        "meta_mean_motion_ddot": 0.00054843269,
        "tle_line1": "1 67102U 25299A   25354.91668981 -.01356711  54843-3 -32169-2 0  9996",
        "tle_line2": "2 67102  42.9993 266.9142 0001704 268.4241 294.3219 15.95864633  2128"
      },
      "geometry": {
        "type": "Point",
        "coordinates": [
          159.98961740676316,
          -42.00125078215075
        ]
      }
    },
    {
      "type": "Feature",
      "properties": {
        "norad_id": 67103,
        "name": "STARLINK-36256",
        "group": "last-30-days",
        "lat": -42.17617191115324,
        "lon": 161.37542095257336,
        "alt_km": 290.07415232845415,
        "timestamp": "2025-12-21T05:44:50.294919+00:00",
        "meta_object_name": "STARLINK-36256",
        "meta_object_id": "2025-299B",
        "meta_epoch": "2025-12-20T22:00:01.999584",
        "meta_mean_motion": 15.95918515,
        "meta_eccentricity": 0.00017821,
        "meta_inclination": 42.9993,
        "meta_ra_of_asc_node": 266.9117,
        "meta_arg_of_pericenter": 267.3665,
        "meta_mean_anomaly": 296.3633,
        "meta_ephemeris_type": 0,
        "meta_classification_type": "U",
        "meta_norad_cat_id": 67103,
        "meta_element_set_no": 999,
        "meta_rev_at_epoch": 212,
        "meta_bstar": -0.003210477,
        "meta_mean_motion_dot": -0.01358003,
        "meta_mean_motion_ddot": 0.00054969059,
        "tle_line1": "1 67103U 25299B   25354.91668981 -.01358003  54969-3 -32105-2 0  9992",
        "tle_line2": "2 67103  42.9993 266.9117 0001782 267.3665 296.3633 15.95918515  2126"
      },
      "geometry": {
        "type": "Point",
        "coordinates": [
          161.37542095257336,
          -42.17617191115324
        ]
      }
    },
    {
      "type": "Feature",
      "properties": {
        "norad_id": 67104,
        "name": "STARLINK-36258",
        "group": "last-30-days",
        "lat": -42.360367402703275,
        "lon": 163.01480828147913,
        "alt_km": 289.8873223977407,
        "timestamp": "2025-12-21T05:44:50.294929+00:00",
        "meta_object_name": "STARLINK-36258",
        "meta_object_id": "2025-299C",
        "meta_epoch": "2025-12-20T22:00:01.999584",
        "meta_mean_motion": 15.96003175,
        "meta_eccentricity": 0.0001755,
        "meta_inclination": 42.9993,
        "meta_ra_of_asc_node": 266.9088,
        "meta_arg_of_pericenter": 267.8353,
        "meta_mean_anomaly": 297.033,
        "meta_ephemeris_type": 0,
        "meta_classification_type": "U",
        "meta_norad_cat_id": 67104,
        "meta_element_set_no": 999,
        "meta_rev_at_epoch": 212,
        "meta_bstar": -0.0032355045,
        "meta_mean_motion_dot": -0.01374719,
        "meta_mean_motion_ddot": 0.00056263591,
        "tle_line1": "1 67104U 25299C   25354.91668981 -.01374719  56264-3 -32355-2 0  9992",
        "tle_line2": "2 67104  42.9993 266.9088 0001755 267.8353 297.0330 15.96003175  2123"
      },
      "geometry": {
        "type": "Point",
        "coordinates": [
          163.01480828147913,
          -42.360367402703275
        ]
      }
    },
    {
      "type": "Feature",
      "properties": {
        "norad_id": 67105,
        "name": "STARLINK-36261",
        "group": "last-30-days",
        "lat": -42.48627414053096,
        "lon": 164.284878814456,
        "alt_km": 289.73176475899527,
        "timestamp": "2025-12-21T05:44:50.294939+00:00",
        "meta_object_name": "STARLINK-36261",
        "meta_object_id": "2025-299D",
        "meta_epoch": "2025-12-20T22:00:01.999584",
        "meta_mean_motion": 15.96057002,
        "meta_eccentricity": 0.00017545,
        "meta_inclination": 42.9993,
        "meta_ra_of_asc_node": 266.9067,
        "meta_arg_of_pericenter": 264.1611,
        "meta_mean_anomaly": 301.5919,
        "meta_ephemeris_type": 0,
        "meta_classification_type": "U",
        "meta_norad_cat_id": 67105,
        "meta_element_set_no": 999,
        "meta_rev_at_epoch": 212,
        "meta_bstar": -0.0032276912,
        "meta_mean_motion_dot": -0.01375428,
        "meta_mean_motion_ddot": 0.00056347672,
        "tle_line1": "1 67105U 25299D   25354.91668981 -.01375428  56348-3 -32277-2 0  9997",
        "tle_line2": "2 67105  42.9993 266.9067 0001754 264.1611 301.5919 15.96057002  2129"
      },
      "geometry": {
        "type": "Point",
        "coordinates": [
          164.284878814456,
          -42.48627414053096
        ]
      }
    },
    {
      "type": "Feature",
      "properties": {
        "norad_id": 67106,
        "name": "STARLINK-36259",
        "group": "last-30-days",
        "lat": -42.776682532635824,
        "lon": 168.08374299722973,
        "alt_km": 289.2237272599641,
        "timestamp": "2025-12-21T05:44:50.294949+00:00",
        "meta_object_name": "STARLINK-36259",
        "meta_object_id": "2025-299E",
        "meta_epoch": "2025-12-20T22:00:01.999584",
        "meta_mean_motion": 15.96250207,
        "meta_eccentricity": 0.00018118,
        "meta_inclination": 42.9994,
        "meta_ra_of_asc_node": 266.9,
        "meta_arg_of_pericenter": 265.0644,
        "meta_mean_anomaly": 303.2964,
        "meta_ephemeris_type": 0,
        "meta_classification_type": "U",
        "meta_norad_cat_id": 67106,
        "meta_element_set_no": 999,
        "meta_rev_at_epoch": 212,
        "meta_bstar": -0.003283044,
        "meta_mean_motion_dot": -0.01413427,
        "meta_mean_motion_ddot": 0.00059351218,
        "tle_line1": "1 67106U 25299E   25354.91668981 -.01413427  59351-3 -32830-2 0  9992",
        "tle_line2": "2 67106  42.9994 266.9000 0001811 265.0644 303.2964 15.96250207  2129"
      },
      "geometry": {
        "type": "Point",
        "coordinates": [
          168.08374299722973,
          -42.776682532635824
        ]
      }
    },
    {
      "type": "Feature",
      "properties": {
        "norad_id": 67107,
        "name": "STARLINK-36196",
        "group": "last-30-days",
        "lat": -42.63843339959537,
        "lon": 166.0636873624101,
        "alt_km": 289.56146008539326,
        "timestamp": "2025-12-21T05:44:50.294961+00:00",
        "meta_object_name": "STARLINK-36196",
        "meta_object_id": "2025-299F",
        "meta_epoch": "2025-12-20T22:00:01.999584",
        "meta_mean_motion": 15.96137351,
        "meta_eccentricity": 0.00017012,
        "meta_inclination": 42.9995,
        "meta_ra_of_asc_node": 266.9036,
        "meta_arg_of_pericenter": 262.8278,
        "meta_mean_anomaly": 304.1573,
        "meta_ephemeris_type": 0,
        "meta_classification_type": "U",
        "meta_norad_cat_id": 67107,
        "meta_element_set_no": 999,
        "meta_rev_at_epoch": 212,
        "meta_bstar": -0.0032348044,
        "meta_mean_motion_dot": -0.01384404,
        "meta_mean_motion_ddot": 0.00057070177,
        "tle_line1": "1 67107U 25299F   25354.91668981 -.01384404  57070-3 -32348-2 0  9995",
        "tle_line2": "2 67107  42.9995 266.9036 0001701 262.8278 304.1573 15.96137351  2126"
      },
      "geometry": {
        "type": "Point",
        "coordinates": [
          166.0636873624101,
          -42.63843339959537
        ]
      }
    },
    {
      "type": "Feature",
      "properties": {
        "norad_id": 67108,
        "name": "STARLINK-36208",
        "group": "last-30-days",
        "lat": -42.87816193778353,
        "lon": 170.08591381078364,
        "alt_km": 288.99247354330146,
        "timestamp": "2025-12-21T05:44:50.294973+00:00",
        "meta_object_name": "STARLINK-36208",
        "meta_object_id": "2025-299G",
        "meta_epoch": "2025-12-20T22:00:01.999584",
        "meta_mean_motion": 15.96347428,
        "meta_eccentricity": 0.00017763,
        "meta_inclination": 42.9994,
        "meta_ra_of_asc_node": 266.8966,
        "meta_arg_of_pericenter": 263.9755,
        "meta_mean_anomaly": 305.7508,
        "meta_ephemeris_type": 0,
        "meta_classification_type": "U",
        "meta_norad_cat_id": 67108,
        "meta_element_set_no": 999,
        "meta_rev_at_epoch": 212,
        "meta_bstar": -0.0032840647,
        "meta_mean_motion_dot": -0.01421311,
        "meta_mean_motion_ddot": 0.00060019457,
        "tle_line1": "1 67108U 25299G   25354.91668981 -.01421311  60019-3 -32841-2 0  9990",
        "tle_line2": "2 67108  42.9994 266.8966 0001776 263.9755 305.7508 15.96347428  2124"
      },
      "geometry": {
        "type": "Point",
        "coordinates": [
          170.08591381078364,
          -42.87816193778353
        ]
      }
    }
  ]
}